CCSDS_OMM_VERS,COMMENT,CREATION_DATE,ORIGINATOR,OBJECT_NAME,OBJECT_ID,CENTER_NAME,REF_FRAME,TIME_SYSTEM,MEAN_ELEMENT_THEORY,EPOCH,MEAN_MOTION,ECCENTRICITY,INCLINATION,RA_OF_ASC_NODE,ARG_OF_PERICENTER,MEAN_ANOMALY,EPHEMERIS_TYPE,CLASSIFICATION_TYPE,NORAD_CAT_ID,ELEMENT_SET_NO,REV_AT_EPOCH,BSTAR,MEAN_MOTION_DOT,MEAN_MOTION_DDOT,SEMIMAJOR_AXIS,PERIOD,APOAPSIS,PERIAPSIS,OBJECT_TYPE,RCS_SIZE,COUNTRY_CODE,LAUNCH_DATE,SITE,DECAY_DATE,FILE,GP_ID,TLE_LINE0,TLE_LINE1,TLE_LINE2
2,GENERATED VIA SPACE-TRACK.ORG API,2023-05-09T06:36:12,18 SPCS,KSF3-C,2023-001K,EARTH,TEME,UTC,SGP4,2023-05-09T04:32:16.581120,15.15946273,0.0011752,97.4808,189.2834,143.9508,291.2296,0,U,55018,999,1915,0.00069162,0.00013233,0,6896.244,94.99,526.214,510.005,PAYLOAD,MEDIUM,LUXE,2023-01-03,AFETR,,3904340,231479359,0 KSF3-C,1 55018U 23001K   23129.18908080  .00013233  00000-0  69162-3 0  9995,2 55018  97.4808 189.2834 0011752 143.9508 291.2296 15.15946273 19158
2,GENERATED VIA SPACE-TRACK.ORG API,2023-05-09T21:10:44,18 SPCS,KSF3-C,2023-001K,EARTH,TEME,UTC,SGP4,2023-05-09T12:36:48.440160,15.15957312,0.0011743,97.481,189.6155,142.2256,328.1118,0,U,55018,999,1920,0.00070609,0.00013516,0,6896.211,94.989,526.174,509.978,PAYLOAD,MEDIUM,LUXE,2023-01-03,AFETR,,3904553,231509992,0 KSF3-C,1 55018U 23001K   23129.52556065  .00013516  00000-0  70609-3 0  9997,2 55018  97.4810 189.6155 0011743 142.2256 328.1118 15.15957312 19208
2,GENERATED VIA SPACE-TRACK.ORG API,2023-05-10T19:12:59,18 SPCS,KSF3-C,2023-001K,EARTH,TEME,UTC,SGP4,2023-05-10T12:21:38.623104,15.15992053,0.0011834,97.4807,190.5905,139.7384,327.2478,0,U,55018,999,1935,0.00075323,0.00014439,0,6896.105,94.987,526.131,509.81,PAYLOAD,MEDIUM,LUXE,2023-01-03,AFETR,,3904555,231536935,0 KSF3-C,1 55018U 23001K   23130.51503036  .00014439  00000-0  75323-3 0  9991,2 55018  97.4807 190.5905 0011834 139.7384 327.2478 15.15992053 19358
2,GENERATED VIA SPACE-TRACK.ORG API,2023-05-10T23:06:13,18 SPCS,KSF3-C,2023-001K,EARTH,TEME,UTC,SGP4,2023-05-10T20:21:25.689600,15.16003328,0.0011903,97.4803,190.9185,139.1211,345.0998,0,U,55018,999,1940,0.00076355,0.00014643,0,6896.071,94.987,526.145,509.728,PAYLOAD,MEDIUM,LUXE,2023-01-03,AFETR,,3904636,231539925,0 KSF3-C,1 55018U 23001K   23130.84821400  .00014643  00000-0  76355-3 0  9998,2 55018  97.4803 190.9185 0011903 139.1211 345.0998 15.16003328 19408
2,GENERATED VIA SPACE-TRACK.ORG API,2023-05-11T05:02:58,18 SPCS,KSF3-C,2023-001K,EARTH,TEME,UTC,SGP4,2023-05-10T20:21:25.689600,15.16003328,0.0011903,97.4803,190.9185,139.1211,345.0998,0,U,55018,999,1940,0.00076355,0.00014643,0,6896.071,94.987,526.145,509.728,PAYLOAD,MEDIUM,LUXE,2023-01-03,AFETR,,3904830,231569063,0 KSF3-C,1 55018U 23001K   23130.84821400  .00014643  00000-0  76355-3 0  9998,2 55018  97.4803 190.9185 0011903 139.1211 345.0998 15.16003328 19408
2,GENERATED VIA SPACE-TRACK.ORG API,2023-05-11T07:16:13,18 SPCS,KSF3-C,2023-001K,EARTH,TEME,UTC,SGP4,2023-05-11T04:07:18.938208,15.16014117,0.0011903,97.48,191.2368,138.3867,310.4427,0,U,55018,999,1945,0.00077182,0.00014807,0,6896.039,94.986,526.112,509.695,PAYLOAD,MEDIUM,LUXE,2023-01-03,AFETR,,3904862,231571824,0 KSF3-C,1 55018U 23001K   23131.17174697  .00014807  00000-0  77182-3 0  9995,2 55018  97.4800 191.2368 0011903 138.3867 310.4427 15.16014117 19456
2,GENERATED VIA SPACE-TRACK.ORG API,2023-05-11T16:56:12,18 SPCS,KSF3-C,2023-001K,EARTH,TEME,UTC,SGP4,2023-05-11T12:10:05.492064,15.16025992,0.0011807,97.4801,191.5675,136.9728,340.446,0,U,55018,999,1950,0.00078567,0.00015079,0,6896.002,94.985,526.01,509.725,PAYLOAD,MEDIUM,LUXE,2023-01-03,AFETR,,3905098,231576653,0 KSF3-C,1 55018U 23001K   23131.50700801  .00015079  00000-0  78567-3 0  9994,2 55018  97.4801 191.5675 0011807 136.9728 340.4460 15.16025992 19503
2,GENERATED VIA SPACE-TRACK.ORG API,2023-05-11T17:34:54,18 SPCS,KSF3-C,2023-001K,EARTH,TEME,UTC,SGP4,2023-05-11T12:10:05.492064,15.16025992,0.0011807,97.4801,191.5675,136.9728,340.446,0,U,55018,999,1950,0.00078567,0.00015079,0,6896.002,94.985,526.01,509.725,PAYLOAD,MEDIUM,LUXE,2023-01-03,AFETR,,3905210,231604600,0 KSF3-C,1 55018U 23001K   23131.50700801  .00015079  00000-0  78567-3 0  9994,2 55018  97.4801 191.5675 0011807 136.9728 340.4460 15.16025992 19503
2,GENERATED VIA SPACE-TRACK.ORG API,2023-05-11T19:46:11,18 SPCS,KSF3-C,2023-001K,EARTH,TEME,UTC,SGP4,2023-05-11T16:24:16.747488,15.16035696,0.0012023,97.4793,191.7424,137.4867,222.7299,0,U,55018,999,1953,0.0007876,0.00015122,0,6895.973,94.985,526.129,509.547,PAYLOAD,MEDIUM,LUXE,2023-01-03,AFETR,,3905308,231608781,0 KSF3-C,1 55018U 23001K   23131.68352717  .00015122  00000-0  78760-3 0  9996,2 55018  97.4793 191.7424 0012023 137.4867 222.7299 15.16035696 19535
2,GENERATED VIA SPACE-TRACK.ORG API,2023-05-12T04:19:19,18 SPCS,KSF3-C,2023-001K,EARTH,TEME,UTC,SGP4,2023-05-11T21:38:25.056096,15.16039978,0.0011885,97.4798,191.9564,136.2896,333.7744,0,U,55018,999,1956,0.00079929,0.00015349,0,6895.96,94.984,526.021,509.629,PAYLOAD,MEDIUM,LUXE,2023-01-03,AFETR,,3905576,231640409,0 KSF3-C,1 55018U 23001K   23131.90167889  .00015349  00000-0  79929-3 0  9994,2 55018  97.4798 191.9564 0011885 136.2896 333.7744 15.16039978 19569
2,GENERATED VIA SPACE-TRACK.ORG API,2023-05-12T06:46:12,18 SPCS,KSF3-C,2023-001K,EARTH,TEME,UTC,SGP4,2023-05-12T02:04:20.030016,15.16046006,0.0011944,97.4797,192.1381,135.8391,261.4383,0,U,55018,999,1959,0.00080128,0.0001539,0,6895.942,94.984,526.043,509.57,PAYLOAD,MEDIUM,LUXE,2023-01-03,AFETR,,3905657,231642839,0 KSF3-C,1 55018U 23001K   23132.08634294  .00015390  00000-0  80128-3 0  9992,2 55018  97.4797 192.1381 0011944 135.8391 261.4383 15.16046006 19598
2,GENERATED VIA SPACE-TRACK.ORG API,2023-05-12T17:30:28,18 SPCS,KSF3-C,2023-001K,EARTH,TEME,UTC,SGP4,2023-05-12T10:04:32.179296,15.16057621,0.0011921,97.4798,192.4673,134.3354,281.8198,0,U,55018,999,1964,0.00081102,0.00015584,0,6895.907,94.983,525.992,509.551,PAYLOAD,MEDIUM,LUXE,2023-01-03,AFETR,,3905921,231674116,0 KSF3-C,1 55018U 23001K   23132.41981689  .00015584  00000-0  81102-3 0  9990,2 55018  97.4798 192.4673 0011921 134.3354 281.8198 15.16057621 19645
2,GENERATED VIA SPACE-TRACK.ORG API,2023-05-12T22:56:12,18 SPCS,KSF3-C,2023-001K,EARTH,TEME,UTC,SGP4,2023-05-12T19:49:26.348160,15.16070517,0.0011929,97.4796,192.8676,133.0975,338.5247,0,U,55018,999,1970,0.00081273,0.00015623,0,6895.867,94.982,525.959,509.506,PAYLOAD,MEDIUM,LUXE,2023-01-03,AFETR,,3906038,231677787,0 KSF3-C,1 55018U 23001K   23132.82599940  .00015623  00000-0  81273-3 0  9993,2 55018  97.4796 192.8676 0011929 133.0975 338.5247 15.16070517 19704
2,GENERATED VIA SPACE-TRACK.ORG API,2023-05-13T02:50:36,18 SPCS,KSF3-C,2023-001K,EARTH,TEME,UTC,SGP4,2023-05-12T19:49:26.348160,15.16070517,0.0011929,97.4796,192.8676,133.0975,338.5247,0,U,55018,999,1970,0.00081273,0.00015623,0,6895.867,94.982,525.959,509.506,PAYLOAD,MEDIUM,LUXE,2023-01-03,AFETR,,3906381,231711684,0 KSF3-C,1 55018U 23001K   23132.82599940  .00015623  00000-0  81273-3 0  9993,2 55018  97.4796 192.8676 0011929 133.0975 338.5247 15.16070517 19704
2,GENERATED VIA SPACE-TRACK.ORG API,2023-05-13T06:56:13,18 SPCS,KSF3-C,2023-001K,EARTH,TEME,UTC,SGP4,2023-05-13T03:37:33.528864,15.16080911,0.0011933,97.4795,193.1875,132.2933,312.4646,0,U,55018,999,1975,0.00081415,0.00015655,0,6895.836,94.982,525.93,509.472,PAYLOAD,MEDIUM,LUXE,2023-01-03,AFETR,,3906460,231714699,0 KSF3-C,1 55018U 23001K   23133.15108251  .00015655  00000-0  81415-3 0  9994,2 55018  97.4795 193.1875 0011933 132.2933 312.4646 15.16080911 19756
2,GENERATED VIA SPACE-TRACK.ORG API,2023-05-13T14:56:12,18 SPCS,KSF3-C,2023-001K,EARTH,TEME,UTC,SGP4,2023-05-13T10:08:03.764256,15.16089404,0.0011958,97.4795,193.4549,131.3487,352.5612,0,U,55018,999,1979,0.00081427,0.00015661,0,6895.81,94.981,525.921,509.429,PAYLOAD,MEDIUM,LUXE,2023-01-03,AFETR,,3906738,231720697,0 KSF3-C,1 55018U 23001K   23133.42226579  .00015661  00000-0  81427-3 0  9998,2 55018  97.4795 193.4549 0011958 131.3487 352.5612 15.16089404 19796
2,GENERATED VIA SPACE-TRACK.ORG API,2023-05-13T18:20:06,18 SPCS,KSF3-C,2023-001K,EARTH,TEME,UTC,SGP4,2023-05-13T10:08:03.764256,15.16089404,0.0011958,97.4795,193.4549,131.3487,352.5612,0,U,55018,999,1979,0.00081427,0.00015661,0,6895.81,94.981,525.921,509.429,PAYLOAD,MEDIUM,LUXE,2023-01-03,AFETR,,3906915,231749425,0 KSF3-C,1 55018U 23001K   23133.42226579  .00015661  00000-0  81427-3 0  9998,2 55018  97.4795 193.4549 0011958 131.3487 352.5612 15.16089404 19796
2,GENERATED VIA SPACE-TRACK.ORG API,2023-05-13T22:46:12,18 SPCS,KSF3-C,2023-001K,EARTH,TEME,UTC,SGP4,2023-05-13T18:07:12.138240,15.16099675,0.001195,97.4795,193.7831,130.452,8.3547,0,U,55018,999,1984,0.00081345,0.0001565,0,6895.779,94.981,525.885,509.404,PAYLOAD,MEDIUM,LUXE,2023-01-03,AFETR,,3906998,231753322,0 KSF3-C,1 55018U 23001K   23133.75500160  .00015650  00000-0  81345-3 0  9992,2 55018  97.4795 193.7831 0011950 130.4520   8.3547 15.16099675 19843
2,GENERATED VIA SPACE-TRACK.ORG API,2023-05-14T02:43:03,18 SPCS,KSF3-C,2023-001K,EARTH,TEME,UTC,SGP4,2023-05-13T18:07:12.138240,15.16099675,0.001195,97.4795,193.7831,130.452,8.3547,0,U,55018,999,1984,0.00081345,0.0001565,0,6895.779,94.981,525.885,509.404,PAYLOAD,MEDIUM,LUXE,2023-01-03,AFETR,,3907148,231782149,0 KSF3-C,1 55018U 23001K   23133.75500160  .00015650  00000-0  81345-3 0  9992,2 55018  97.4795 193.7831 0011950 130.4520   8.3547 15.16099675 19843
2,GENERATED VIA SPACE-TRACK.ORG API,2023-05-14T06:46:12,18 SPCS,KSF3-C,2023-001K,EARTH,TEME,UTC,SGP4,2023-05-14T03:14:31.962624,15.16110838,0.0012031,97.4793,194.1574,129.6091,282.4019,0,U,55018,999,1990,0.00080904,0.00015569,0,6895.745,94.98,525.906,509.314,PAYLOAD,MEDIUM,LUXE,2023-01-03,AFETR,,3907227,231784966,0 KSF3-C,1 55018U 23001K   23134.13509216  .00015569  00000-0  80904-3 0  9995,2 55018  97.4793 194.1574 0012031 129.6091 282.4019 15.16110838 19905
